NORAD_CAT_ID,OBJECT_NAME,OBJECT_TYPE,EPOCH,MEAN_MOTION,ECCENTRICITY,INCLINATION,RA_OF_ASC_NODE,ARG_OF_PERICENTER,MEAN_ANOMALY,BSTAR,MEAN_MOTION_DOT,MEAN_MOTION_DDOT,TLE_LINE0,TLE_LINE1,TLE_LINE2,SEMIMAJOR_AXIS,PERIOD,APOGEE,PERIGEE,DECAYED
53977.0,STARLINK-5094,PAYLOAD,2023-12-17 00:23:14,15.08843844,0.0001696,53.2171,271.9569,95.8755,264.243,-2.233e-05,-6.43e-06,0.0,0 STARLINK-5094,1 53977U 22125P   23351.01614371 -.00000643  00000-0 -22330-4 0  9999,2 53977  53.2171 271.9569 0001696  95.8755 264.2430 15.08843844 66628,6917.869,95.437,540.907,538.56,0.0
53977.0,STARLINK-5094,PAYLOAD,2023-12-17 22:38:38,15.08844581,0.0001672,53.2173,267.7941,91.1051,269.0132,0.00014621,2.04e-05,0.0,0 STARLINK-5094,1 53977U 22125P   23351.94349938  .00002040  00000-0  14621-3 0  9999,2 53977  53.2173 267.7941 0001672  91.1051 269.0132 15.08844581 66697,6917.866,95.437,540.888,538.575,0.0
53977.0,STARLINK-5094,PAYLOAD,2023-12-18 00:14:01,15.08848604,0.0001682,53.2169,267.4973,92.6314,267.4871,0.00017584,2.512e-05,0.0,0 STARLINK-5094,1 53977U 22125P   23352.00973615  .00002512  00000-0  17584-3 0  9997,2 53977  53.2169 267.4973 0001682  92.6314 267.4871 15.08848604 66774,6917.854,95.437,540.883,538.556,0.0
53977.0,STARLINK-5094,PAYLOAD,2023-12-18 22:29:27,15.08826509,0.0001779,53.2173,263.3315,83.8568,276.2627,-9.4578e-05,-1.792e-05,0.0,0 STARLINK-5094,1 53977U 22125P   23352.93712438 -.00001792  00000-0 -94578-4 0  9993,2 53977  53.2173 263.3315 0001779  83.8568 276.2627 15.08826509 66849,6917.922,95.438,541.017,538.556,0.0
53977.0,STARLINK-5094,PAYLOAD,2023-12-19 01:40:15,15.08809028,0.0001505,53.2179,262.7387,76.3875,283.7284,-0.00023295,-3.99e-05,0.0,0 STARLINK-5094,1 53977U 22125P   23353.06961947 -.00003990  00000-0 -23295-3 0  9998,2 53977  53.2179 262.7387 0001505  76.3875 283.7284 15.08809028 66931,6917.975,95.44,540.881,538.799,0.0
53977.0,STARLINK-5094,PAYLOAD,2023-12-20 01:30:58,15.08866039,0.0001557,53.2179,258.2765,82.5236,277.5933,0.00015774,2.225e-05,0.0,0 STARLINK-5094,1 53977U 22125P   23354.06317390  .00002225  00000-0  15774-3 0  9997,2 53977  53.2179 258.2765 0001557  82.5236 277.5933 15.08866039 67082,6917.801,95.436,540.743,538.589,0.0
53977.0,STARLINK-5094,PAYLOAD,2023-12-20 22:11:00,15.08835469,0.0001236,53.2182,254.4105,90.1558,269.9576,0.00037565,5.695e-05,0.0,0 STARLINK-5094,1 53977U 22125P   23354.92430755  .00005695  00000-0  37565-3 0  9999,2 53977  53.2182 254.4105 0001236  90.1558 269.9576 15.08835469 67146,6917.894,95.438,540.614,538.904,0.0
53977.0,STARLINK-5094,PAYLOAD,2023-12-20 23:46:23,15.08839092,0.0001394,53.2177,254.1145,73.7683,286.3462,0.00040563,6.173e-05,0.0,0 STARLINK-5094,1 53977U 22125P   23354.99054649  .00006173  00000-0  40563-3 0  9994,2 53977  53.2177 254.1145 0001394  73.7683 286.3462 15.08839092 67224,6917.883,95.438,540.713,538.784,0.0
53977.0,STARLINK-5094,PAYLOAD,2023-12-21 22:01:47,15.08851311,0.000142,53.2173,249.9518,79.0876,281.0276,-0.00011094,-2.054e-05,0.0,0 STARLINK-5094,1 53977U 22125P   23355.91791006 -.00002054  00000-0 -11094-3 0  9995,2 53977  53.2173 249.9518 0001420  79.0876 281.0276 15.08851311 67299,6917.846,95.437,540.693,538.728,0.0
53977.0,STARLINK-5094,PAYLOAD,2023-12-21 23:37:10,15.08852454,0.0001403,53.2176,249.6533,83.0912,277.024,-0.00011665,-2.145e-05,0.0,0 STARLINK-5094,1 53977U 22125P   23355.98414830 -.00002145  00000-0 -11665-3 0  9994,2 53977  53.2176 249.6533 0001403  83.0912 277.0240 15.08852454 67377,6917.842,95.437,540.678,538.737,0.0
53977.0,STARLINK-5094,PAYLOAD,2023-12-22 20:17:11,15.08845497,0.0001336,53.2176,245.7863,102.8041,257.31,-4.201e-05,-9.57e-06,0.0,0 STARLINK-5094,1 53977U 22125P   23356.84526733 -.00000957  00000-0 -42010-4 0  9994,2 53977  53.2176 245.7863 0001336 102.8041 257.3100 15.08845497 67508,6917.864,95.437,540.653,538.804,0.0
53977.0,STARLINK-5094,PAYLOAD,2023-12-22 21:52:34,15.08848788,0.0001416,53.2175,245.4902,84.3819,275.7334,-3.8942e-05,-9.08e-06,0.0,0 STARLINK-5094,1 53977U 22125P   23356.91150592 -.00000908  00000-0 -38942-4 0  9993,2 53977  53.2175 245.4902 0001416  84.3819 275.7334 15.08848788 67446,6917.854,95.437,540.698,538.739,0.0
53977.0,STARLINK-5094,PAYLOAD,2023-12-23 02:38:43,15.08856715,0.0001538,53.2179,244.5947,96.9194,263.1974,-8.9556e-05,-1.714e-05,0.0,0 STARLINK-5094,1 53977U 22125P   23357.11022047 -.00001714  00000-0 -89556-4 0  9992,2 53977  53.2179 244.5947 0001538  96.9194 263.1974 15.08856715 67540,6917.829,95.436,540.758,538.63,0.0
53977.0,STARLINK-5094,PAYLOAD,2023-12-23 20:07:58,15.08838411,0.0001778,53.218,241.3223,111.7839,248.3343,6.8559e-05,8.03e-06,0.0,0 STARLINK-5094,1 53977U 22125P   23357.83886915  .00000803  00000-0  68559-4 0  9999,2 53977  53.2180 241.3223 0001778 111.7839 248.3343 15.08838411 67652,6917.885,95.438,540.98,538.52,0.0
53977.0,STARLINK-5094,PAYLOAD,2023-12-23 21:43:20,15.08878252,0.000147,53.2181,241.0238,113.6395,246.4751,-0.00049375,-8.146e-05,0.0,0 STARLINK-5094,1 53977U 22125P   23357.90510174 -.00008146  00000-0 -49375-3 0  9992,2 53977  53.2181 241.0238 0001470 113.6395 246.4751 15.08878252 67595,6917.763,95.435,540.645,538.612,0.0
53977.0,STARLINK-5094,PAYLOAD,2023-12-24 02:29:30,15.08838926,0.0001451,53.2175,240.1361,95.8563,264.2594,6.0219e-05,6.71e-06,0.0,0 STARLINK-5094,1 53977U 22125P   23358.10383035  .00000671  00000-0  60219-4 0  9993,2 53977  53.2175 240.1361 0001451  95.8563 264.2594 15.08838926 67623,6917.884,95.438,540.752,538.745,0.0
53977.0,STARLINK-5094,PAYLOAD,2023-12-24 21:34:08,15.08844778,0.0001402,53.2175,236.5676,93.2979,266.8174,1.8239e-05,2e-08,0.0,0 STARLINK-5094,1 53977U 22125P   23358.89870984  .00000002  00000-0  18239-4 0  9996,2 53977  53.2175 236.5676 0001402  93.2979 266.8174 15.08844778 67747,6917.866,95.437,540.701,538.761,0.0
53977.0,STARLINK-5094,PAYLOAD,2023-12-24 23:09:31,15.0884888,0.0001523,53.2175,236.27,104.3991,255.717,1.8601e-05,8e-08,0.0,0 STARLINK-5094,1 53977U 22125P   23358.96494683  .00000008  00000-0  18601-4 0  9991,2 53977  53.2175 236.2700 0001523 104.3991 255.7170 15.08848880 67824,6917.853,95.437,540.772,538.665,0.0
53977.0,STARLINK-5094,PAYLOAD,2023-12-25 19:49:32,15.08835167,0.000167,53.2178,232.4071,104.2233,255.8945,5.155e-05,5.32e-06,0.0,0 STARLINK-5094,1 53977U 22125P   23359.82607612  .00000532  00000-0  51550-4 0  9997,2 53977  53.2178 232.4071 0001670 104.2233 255.8945 15.08835167 67956,6917.895,95.438,540.915,538.605,0.0
53977.0,STARLINK-5094,PAYLOAD,2023-12-25 21:24:56,15.08835248,0.0001648,53.2178,232.108,102.1288,257.9889,4.1049e-05,3.65e-06,0.0,0 STARLINK-5094,1 53977U 22125P   23359.89231624  .00000365  00000-0  41049-4 0  9996,2 53977  53.2178 232.1080 0001648 102.1288 257.9889 15.08835248 67898,6917.895,95.438,540.9,538.62,0.0
53977.0,STARLINK-5094,PAYLOAD,2023-12-26 00:35:42,15.08836224,0.0001545,53.2172,231.5126,85.3718,274.745,4.4561e-05,4.21e-06,0.0,0 STARLINK-5094,1 53977U 22125P   23360.02479652  .00000421  00000-0  44561-4 0  9993,2 53977  53.2172 231.5126 0001545  85.3718 274.7450 15.08836224 67911,6917.892,95.438,540.826,538.688,0.0
53977.0,STARLINK-5094,PAYLOAD,2023-12-26 22:51:06,15.08808424,0.0001724,53.2171,227.3492,88.0082,272.1107,0.00053114,8.168e-05,0.0,0 STARLINK-5094,1 53977U 22125P   23360.95216041  .00008168  00000-0  53114-3 0  9995,2 53977  53.2171 227.3492 0001724  88.0082 272.1107 15.08808424 68050,6917.977,95.44,541.035,538.649,0.0
53977.0,STARLINK-5094,PAYLOAD,2023-12-27 00:26:29,15.08813124,0.0001737,53.2173,227.0499,88.2933,271.8258,0.00051621,7.931e-05,0.0,0 STARLINK-5094,1 53977U 22125P   23361.01839893  .00007931  00000-0  51621-3 0  9997,2 53977  53.2173 227.0499 0001737  88.2933 271.8258 15.08813124 68132,6917.963,95.439,541.029,538.626,0.0
53977.0,STARLINK-5094,PAYLOAD,2023-12-27 14:44:57,15.08839915,0.0001622,53.2175,224.3793,82.3976,277.72,9.881e-05,1.285e-05,0.0,0 STARLINK-5094,1 53977U 22125P   23361.61455498  .00001285  00000-0  98810-4 0  9996,2 53977  53.2175 224.3793 0001622  82.3976 277.7200 15.08839915 68156,6917.881,95.438,540.868,538.624,0.0
53977.0,STARLINK-5094,PAYLOAD,2023-12-27 19:31:07,15.08838504,0.0001569,53.2173,223.4864,84.8878,275.2294,7.9044e-05,9.7e-06,0.0,0 STARLINK-5094,1 53977U 22125P   23361.81327655  .00000970  00000-0  79044-4 0  9999,2 53977  53.2173 223.4864 0001569  84.8878 275.2294 15.08838504 68251,6917.885,95.438,540.835,538.665,0.0
53977.0,STARLINK-5094,PAYLOAD,2023-12-27 21:06:30,15.08839154,0.0001594,53.2175,223.1893,83.991,276.1264,8.2728e-05,1.029e-05,0.0,0 STARLINK-5094,1 53977U 22125P   23361.87951587  .00001029  00000-0  82728-4 0  9991,2 53977  53.2175 223.1893 0001594  83.9910 276.1264 15.08839154 68199,6917.883,95.438,540.851,538.645,0.0
53977.0,STARLINK-5094,PAYLOAD,2023-12-28 00:17:16,15.08843421,0.0001424,53.2169,222.5932,85.9868,274.1287,0.00011174,1.491e-05,0.0,0 STARLINK-5094,1 53977U 22125P   23362.01199184  .00001491  00000-0  11174-3 0  9994,2 53977  53.2169 222.5932 0001424  85.9868 274.1287 15.08843421 68213,6917.87,95.437,540.72,538.75,0.0
53977.0,STARLINK-5094,PAYLOAD,2023-12-28 20:57:17,15.08843914,0.0001425,53.2167,218.727,83.9056,276.2098,1.5372e-05,-4.3e-07,0.0,0 STARLINK-5094,1 53977U 22125P   23362.87311376 -.00000043  00000-0  15372-4 0  9995,2 53977  53.2167 218.7270 0001425  83.9056 276.2098 15.08843914 68345,6917.868,95.437,540.719,538.748,0.0
53977.0,STARLINK-5094,PAYLOAD,2023-12-29 00:08:03,15.08840798,0.0001377,53.2167,218.1299,78.927,281.1877,5.5618e-05,5.97e-06,0.0,0 STARLINK-5094,1 53977U 22125P   23363.00559401  .00000597  00000-0  55618-4 0  9994,2 53977  53.2167 218.1299 0001377  78.9270 281.1877 15.08840798 68435,6917.878,95.438,540.696,538.79,0.0
53977.0,STARLINK-5094,PAYLOAD,2023-12-29 20:48:04,15.08839953,0.0001372,53.2171,214.264,112.8821,247.2316,-2.5847e-05,-6.99e-06,0.0,0 STARLINK-5094,1 53977U 22125P   23363.86671580 -.00000699  00000-0 -25847-4 0  9997,2 53977  53.2171 214.2640 0001372 112.8821 247.2316 15.08839953 68490,6917.881,95.438,540.695,538.796,0.0
